[{"OBJECT_NAME":"OBJECT H","OBJECT_ID":"2025-313H","EPOCH":"2026-03-09T22:36:06.294528","MEAN_MOTION":15.02722765,"ECCENTRICITY":0.0085698,"INCLINATION":97.296,"RA_OF_ASC_NODE":142.3052,"ARG_OF_PERICENTER":313.0136,"MEAN_ANOMALY":46.393,"EPHEMERIS_TYPE":0,"CLASSIFICATION_TYPE":"U","NORAD_CAT_ID":67255,"ELEMENT_SET_NO":999,"REV_AT_EPOCH":1072,"BSTAR":0.0002424576,"MEAN_MOTION_DOT":3.444e-5,"MEAN_MOTION_DDOT":0},{"OBJECT_NAME":"CZ-6A DEB","OBJECT_ID":"2022-151XR","EPOCH":"2026-03-07T05:13:23.585376","MEAN_MOTION":14.86365371,"ECCENTRICITY":0.0030591,"INCLINATION":98.768,"RA_OF_ASC_NODE":152.5166,"ARG_OF_PERICENTER":191.5134,"MEAN_ANOMALY":168.5383,"EPHEMERIS_TYPE":0,"CLASSIFICATION_TYPE":"U","NORAD_CAT_ID":55519,"ELEMENT_SET_NO":999,"REV_AT_EPOCH":17058,"BSTAR":0.0071908,"MEAN_MOTION_DOT":0.00064446,"MEAN_MOTION_DDOT":0}]
